ONEWEB-0509             
1 54127U 22138Q   23304.93368527  .00000240  00000+0  56764-3 0  9996
2 54127  87.9184 135.9017 0001851  86.2225 273.9119 13.19723684 50285
ONEWEB-0510             
1 54128U 22138R   23305.20255414 -.00000015  00000+0 -68810-4 0  9996
2 54128  87.9208 105.3060 0001210  82.8813 277.2458 13.20769347 53594
ONEWEB-0511             
1 54129U 22138S   23304.93052981  .00000136  00000+0  30785-3 0  9991
2 54129  87.9181 135.9035 0002137  83.4768 276.6608 13.19725191 50315
ONEWEB-0512             
1 54130U 22138T   23304.92263596  .00000044  00000+0  77340-4 0  9995
2 54130  87.9178 135.9036 0001862  66.8574 293.2755 13.19724939 50281
ONEWEB-0513             
1 54131U 22138U   23304.89339637 -.00000035  00000+0 -11938-3 0  9994
2 54131  87.9177 135.9136 0002206  69.3065 290.8304 13.19722238 50168
ONEWEB-0514             
1 54132U 22138V   23305.09005946  .00000121  00000+0  26940-3 0  9994
2 54132  87.9181 135.8743 0001651  84.4359 275.6962 13.19725438 51194
ONEWEB-0515             
1 54133U 22138W   23304.88689926  .00000006  00000+0 -16173-4 0  9998
2 54133  87.9155 105.3839 0001032 124.3220 235.8011 13.20772170 52672
ONEWEB-0516             
1 54134U 22138X   23305.06478007  .00000064  00000+0  12633-3 0  9995
2 54134  87.9182 135.8752 0001511  80.0051 280.1252 13.19726828 51190
